{
  "norad_id": 42719,
  "name": "COSMOS 2518",
  "history": [
    {
      "epoch": "2026-03-27T11:21:50.717088",
      "apogee_km": 38744.97076096163,
      "perigee_km": 1538.3266648108047,
      "latitude_deg": -57.862359091733445,
      "longitude_deg": -158.64364768005908,
      "semi_major_axis_km": 26519.785712886216,
      "eccentricity": 0.7014884,
      "inclination_deg": 63.1088,
      "raan_deg": 258.3197,
      "arg_perigee_deg": 273.569,
      "mean_anomaly_deg": 15.4907,
      "mean_motion_rev_day": 2.01023924
    }
  ]
}